{
  "type": "FeatureCollection",
  "features": [
    {
      "type": "Feature",
      "properties": {
        "norad_id": 36668,
        "name": "FENGYUN 1C DEB",
        "group": "fengyun-1c-debris",
        "lat": 29.502182830480884,
        "lon": 1.3035167000744048,
        "alt_km": 875.9147387950907,
        "timestamp": "2025-12-22T04:03:39.457953+00:00",
        "meta_object_name": "FENGYUN 1C DEB",
        "meta_object_id": "1999-025DYN",
        "meta_epoch": "2025-12-19T06:21:32.105088",
        "meta_mean_motion": 14.15409146,
        "meta_eccentricity": 0.0051621,
        "meta_inclination": 98.6081,
        "meta_ra_of_asc_node": 3.4166,
        "meta_arg_of_pericenter": 206.8529,
        "meta_mean_anomaly": 152.9972,
        "meta_ephemeris_type": 0,
        "meta_classification_type": "U",
        "meta_norad_cat_id": 36668,
        "meta_element_set_no": 999,
        "meta_rev_at_epoch": 57510,
        "meta_bstar": 0.00046927,
        "meta_mean_motion_dot": 8.85e-06,
        "meta_mean_motion_ddot": 0,
        "tle_line1": "1 36668U 99025DYN 25353.26495492  .00000885  00000+0  46927-3 0  9994",
        "tle_line2": "2 36668  98.6081   3.4166 0051621 206.8529 152.9972 14.15409146575108"
      },
      "geometry": {
        "type": "Point",
        "coordinates": [
          1.3035167000744048,
          29.502182830480884
        ]
      }
    },
    {
      "type": "Feature",
      "properties": {
        "norad_id": 36676,
        "name": "FENGYUN 1C DEB",
        "group": "fengyun-1c-debris",
        "lat": -30.882359650705364,
        "lon": -98.77240249454941,
        "alt_km": 801.292251644516,
        "timestamp": "2025-12-22T04:03:39.457963+00:00",
        "meta_object_name": "FENGYUN 1C DEB",
        "meta_object_id": "1999-025DYW",
        "meta_epoch": "2025-12-12T12:03:08.237952",
        "meta_mean_motion": 14.43199836,
        "meta_eccentricity": 0.00955768,
        "meta_inclination": 98.7673,
        "meta_ra_of_asc_node": 245.9859,
        "meta_arg_of_pericenter": 132.3194,
        "meta_mean_anomaly": 40.1509,
        "meta_ephemeris_type": 0,
        "meta_classification_type": "U",
        "meta_norad_cat_id": 36676,
        "meta_element_set_no": 999,
        "meta_rev_at_epoch": 65062,
        "meta_bstar": 0.00064689298,
        "meta_mean_motion_dot": 2.25e-05,
        "meta_mean_motion_ddot": 0,
        "tle_line1": "1 36676U 99025DYW 25346.50217868  .00002250  00000+0  64689-3 0  9994",
        "tle_line2": "2 36676  98.7673 245.9859 0095576 132.3194  40.1509 14.43199836650623"
      },
      "geometry": {
        "type": "Point",
        "coordinates": [
          -98.77240249454941,
          -30.882359650705364
        ]
      }
    },
    {
      "type": "Feature",
      "properties": {
        "norad_id": 36678,
        "name": "FENGYUN 1C DEB",
        "group": "fengyun-1c-debris",
        "lat": 22.627039219041144,
        "lon": 161.69017253050995,
        "alt_km": 870.7083275621035,
        "timestamp": "2025-12-22T04:03:39.457973+00:00",
        "meta_object_name": "FENGYUN 1C DEB",
        "meta_object_id": "1999-025DYY",
        "meta_epoch": "2025-11-26T04:26:16.761408",
        "meta_mean_motion": 14.37944691,
        "meta_eccentricity": 0.01523469,
        "meta_inclination": 98.2901,
        "meta_ra_of_asc_node": 313.1233,
        "meta_arg_of_pericenter": 42.409,
        "meta_mean_anomaly": 318.8754,
        "meta_ephemeris_type": 0,
        "meta_classification_type": "U",
        "meta_norad_cat_id": 36678,
        "meta_element_set_no": 999,
        "meta_rev_at_epoch": 64751,
        "meta_bstar": 0.00045851479,
        "meta_mean_motion_dot": 1.539e-05,
        "meta_mean_motion_ddot": 0,
        "tle_line1": "1 36678U 99025DYY 25330.18491622  .00001539  00000+0  45851-3 0  9994",
        "tle_line2": "2 36678  98.2901 313.1233 0152346  42.4090 318.8754 14.37944691647514"
      },
      "geometry": {
        "type": "Point",
        "coordinates": [
          161.69017253050995,
          22.627039219041144
        ]
      }
    },
    {
      "type": "Feature",
      "properties": {
        "norad_id": 36679,
        "name": "FENGYUN 1C DEB",
        "group": "fengyun-1c-debris",
        "lat": -76.68207878313582,
        "lon": 33.12169111363023,
        "alt_km": 937.2414407073775,
        "timestamp": "2025-12-22T04:03:39.457983+00:00",
        "meta_object_name": "FENGYUN 1C DEB",
        "meta_object_id": "1999-025DYZ",
        "meta_epoch": "2025-12-12T05:06:20.489760",
        "meta_mean_motion": 14.04635854,
        "meta_eccentricity": 0.00860329,
        "meta_inclination": 98.8358,
        "meta_ra_of_asc_node": 342.3526,
        "meta_arg_of_pericenter": 94.9778,
        "meta_mean_anomaly": 266.1218,
        "meta_ephemeris_type": 0,
        "meta_classification_type": "U",
        "meta_norad_cat_id": 36679,
        "meta_element_set_no": 999,
        "meta_rev_at_epoch": 24541,
        "meta_bstar": 0.00093240851,
        "meta_mean_motion_dot": 1.499e-05,
        "meta_mean_motion_ddot": 0,
        "tle_line1": "1 36679U 99025DYZ 25346.21273715  .00001499  00000+0  93241-3 0  9998",
        "tle_line2": "2 36679  98.8358 342.3526 0086032  94.9778 266.1218 14.04635854245414"
      },
      "geometry": {
        "type": "Point",
        "coordinates": [
          33.12169111363023,
          -76.68207878313582
        ]
      }
    },
    {
      "type": "Feature",
      "properties": {
        "norad_id": 36680,
        "name": "FENGYUN 1C DEB",
        "group": "fengyun-1c-debris",
        "lat": 2.974019992376873,
        "lon": -12.488750860318575,
        "alt_km": 937.1817220382836,
        "timestamp": "2025-12-22T04:03:39.457994+00:00",
        "meta_object_name": "FENGYUN 1C DEB",
        "meta_object_id": "1999-025DZA",
        "meta_epoch": "2025-12-21T06:07:18.804864",
        "meta_mean_motion": 14.1864954,
        "meta_eccentricity": 0.0188551,
        "meta_inclination": 98.5487,
        "meta_ra_of_asc_node": 347.0773,
        "meta_arg_of_pericenter": 224.6776,
        "meta_mean_anomaly": 151.1347,
        "meta_ephemeris_type": 0,
        "meta_classification_type": "U",
        "meta_norad_cat_id": 36680,
        "meta_element_set_no": 999,
        "meta_rev_at_epoch": 64418,
        "meta_bstar": 0.00033671,
        "meta_mean_motion_dot": 7.88e-06,
        "meta_mean_motion_ddot": 0,
        "tle_line1": "1 36680U 99025DZA 25355.25507876  .00000788  00000+0  33671-3 0  9993",
        "tle_line2": "2 36680  98.5487 347.0773 0188551 224.6776 151.1347 14.18649540644186"
      },
      "geometry": {
        "type": "Point",
        "coordinates": [
          -12.488750860318575,
          2.974019992376873
        ]
      }
    },
    {
      "type": "Feature",
      "properties": {
        "norad_id": 36681,
        "name": "FENGYUN 1C DEB",
        "group": "fengyun-1c-debris",
        "lat": -77.93196704930742,
        "lon": 40.20327915622421,
        "alt_km": 842.1254262973007,
        "timestamp": "2025-12-22T04:03:39.458004+00:00",
        "meta_object_name": "FENGYUN 1C DEB",
        "meta_object_id": "1999-025DZB",
        "meta_epoch": "2025-12-10T18:18:12.275712",
        "meta_mean_motion": 14.10256093,
        "meta_eccentricity": 0.00454371,
        "meta_inclination": 98.6973,
        "meta_ra_of_asc_node": 343.4508,
        "meta_arg_of_pericenter": 355.1749,
        "meta_mean_anomaly": 4.8979,
        "meta_ephemeris_type": 0,
        "meta_classification_type": "U",
        "meta_norad_cat_id": 36681,
        "meta_element_set_no": 999,
        "meta_rev_at_epoch": 72730,
        "meta_bstar": 0.00096687905,
        "meta_mean_motion_dot": 1.688e-05,
        "meta_mean_motion_ddot": 0,
        "tle_line1": "1 36681U 99025DZB 25344.76264208  .00001688  00000+0  96688-3 0  9994",
        "tle_line2": "2 36681  98.6973 343.4508 0045437 355.1749   4.8979 14.10256093727309"
      },
      "geometry": {
        "type": "Point",
        "coordinates": [
          40.20327915622421,
          -77.93196704930742
        ]
      }
    },
    {
      "type": "Feature",
      "properties": {
        "norad_id": 36682,
        "name": "FENGYUN 1C DEB",
        "group": "fengyun-1c-debris",
        "lat": -35.542349070341466,
        "lon": 72.74958502697902,
        "alt_km": 865.1377612786782,
        "timestamp": "2025-12-22T04:03:39.458014+00:00",
        "meta_object_name": "FENGYUN 1C DEB",
        "meta_object_id": "1999-025DZC",
        "meta_epoch": "2025-12-20T22:56:56.479200",
        "meta_mean_motion": 13.70152348,
        "meta_eccentricity": 0.023307,
        "meta_inclination": 98.4859,
        "meta_ra_of_asc_node": 257.8007,
        "meta_arg_of_pericenter": 255.3735,
        "meta_mean_anomaly": 102.147,
        "meta_ephemeris_type": 0,
        "meta_classification_type": "U",
        "meta_norad_cat_id": 36682,
        "meta_element_set_no": 999,
        "meta_rev_at_epoch": 61505,
        "meta_bstar": 0.00076722,
        "meta_mean_motion_dot": 7.79e-06,
        "meta_mean_motion_ddot": 0,
        "tle_line1": "1 36682U 99025DZC 25354.95620925  .00000779  00000+0  76722-3 0  9996",
        "tle_line2": "2 36682  98.4859 257.8007 0233070 255.3735 102.1470 13.70152348615050"
      },
      "geometry": {
        "type": "Point",
        "coordinates": [
          72.74958502697902,
          -35.542349070341466
        ]
      }
    }
  ]
}